{
  "norad_id": 65824,
  "name": "STARLINK-35281",
  "history": [
    {
      "epoch": "2026-04-13T05:05:41.416224Z",
      "apogee_km": 476.05445395365496,
      "perigee_km": 474.37373813086197,
      "latitude_deg": 1.847808156462325e-05,
      "longitude_deg": 10.540739466883776,
      "height_km": 476.04726398160557,
      "semi_major_axis_km": 6853.351096042258,
      "eccentricity": 0.00012262,
      "inclination_deg": 53.1579,
      "raan_deg": 288.3696,
      "arg_perigee_deg": 85.5813,
      "mean_anomaly_deg": 274.5328,
      "mean_motion_rev_day": 15.30200326
    },
    {
      "epoch": "2026-04-14T18:42:57.565152Z",
      "apogee_km": 476.78902983877833,
      "perigee_km": 473.4377903882332,
      "latitude_deg": -3.6461958417814095e-05,
      "longitude_deg": 157.3955671427285,
      "height_km": 476.10904642398117,
      "semi_major_axis_km": 6853.2504101135055,
      "eccentricity": 0.0002445,
      "inclination_deg": 53.1604,
      "raan_deg": 281.0868,
      "arg_perigee_deg": 93.394,
      "mean_anomaly_deg": 266.734,
      "mean_motion_rev_day": 15.30234048
    },
    {
      "epoch": "2026-04-15T18:13:45.474240Z",
      "apogee_km": 476.0624992754447,
      "perigee_km": 474.32175367732,
      "latitude_deg": 8.548968755818158e-06,
      "longitude_deg": 159.17922408062606,
      "height_km": 476.03089524722515,
      "semi_major_axis_km": 6853.329126476382,
      "eccentricity": 0.000127,
      "inclination_deg": 53.1594,
      "raan_deg": 276.5357,
      "arg_perigee_deg": 86.0967,
      "mean_anomaly_deg": 274.0179,
      "mean_motion_rev_day": 15.30207684
    },
    {
      "epoch": "2026-04-16T17:44:33.972576Z",
      "apogee_km": 476.01172731864244,
      "perigee_km": 474.4519005765869,
      "latitude_deg": 5.779684542838808e-06,
      "longitude_deg": 160.96208352481867,
      "height_km": 476.0906883449335,
      "semi_major_axis_km": 6853.368813947614,
      "eccentricity": 0.0001138,
      "inclination_deg": 53.1585,
      "raan_deg": 271.9863,
      "arg_perigee_deg": 87.1176,
      "mean_anomaly_deg": 272.9955,
      "mean_motion_rev_day": 15.30194392
    },
    {
      "epoch": "2026-04-17T20:23:28.241088Z",
      "apogee_km": 475.8786346864663,
      "perigee_km": 474.50961326114066,
      "latitude_deg": 7.304104680805154e-05,
      "longitude_deg": 114.98520509028914,
      "height_km": 476.0000675453107,
      "semi_major_axis_km": 6853.331123973803,
      "eccentricity": 9.988e-05,
      "inclination_deg": 53.159,
      "raan_deg": 266.8299,
      "arg_perigee_deg": 82.2424,
      "mean_anomaly_deg": 277.8691,
      "mean_motion_rev_day": 15.30207015
    },
    {
      "epoch": "2026-04-18T19:54:15.815808Z",
      "apogee_km": 476.0103961940458,
      "perigee_km": 474.3573751964159,
      "latitude_deg": 2.3717848211979492e-05,
      "longitude_deg": 116.76698707260742,
      "height_km": 476.2305793420798,
      "semi_major_axis_km": 6853.320885695231,
      "eccentricity": 0.0001206,
      "inclination_deg": 53.1596,
      "raan_deg": 262.2756,
      "arg_perigee_deg": 100.3541,
      "mean_anomaly_deg": 259.7596,
      "mean_motion_rev_day": 15.30210444
    },
    {
      "epoch": "2026-04-19T16:16:57.614304Z",
      "apogee_km": 476.7033451008838,
      "perigee_km": 473.6412864985832,
      "latitude_deg": 4.748003459134936e-05,
      "longitude_deg": 166.31093740767713,
      "height_km": 476.5219188492087,
      "semi_major_axis_km": 6853.309315799733,
      "eccentricity": 0.0002234,
      "inclination_deg": 53.1607,
      "raan_deg": 258.3306,
      "arg_perigee_deg": 107.1985,
      "mean_anomaly_deg": 252.9261,
      "mean_motion_rev_day": 15.30214319
    },
    {
      "epoch": "2026-04-20T14:13:42.526848Z",
      "apogee_km": 475.82972605613213,
      "perigee_km": 474.5392456203481,
      "latitude_deg": 4.767244894972902e-05,
      "longitude_deg": -168.02548211702194,
      "height_km": 476.35835092599143,
      "semi_major_axis_km": 6853.32148583824,
      "eccentricity": 9.415e-05,
      "inclination_deg": 53.1615,
      "raan_deg": 254.0826,
      "arg_perigee_deg": 115.2339,
      "mean_anomaly_deg": 244.876,
      "mean_motion_rev_day": 15.30210243
    },
    {
      "epoch": "2026-04-21T15:18:33.346080Z",
      "apogee_km": 476.07108475450605,
      "perigee_km": 474.27551745561595,
      "latitude_deg": -5.059456437145716e-05,
      "longitude_deg": 169.88126414225601,
      "height_km": 476.18829712748715,
      "semi_major_axis_km": 6853.310301105061,
      "eccentricity": 0.000131,
      "inclination_deg": 53.1623,
      "raan_deg": 249.2312,
      "arg_perigee_deg": 97.469,
      "mean_anomaly_deg": 262.6459,
      "mean_motion_rev_day": 15.30213989
    },
    {
      "epoch": "2026-04-22T08:33:08.780832Z",
      "apogee_km": 476.10708604594583,
      "perigee_km": 474.32781816309034,
      "latitude_deg": -3.818396670898391e-05,
      "longitude_deg": -92.81022531699385,
      "height_km": 476.21965626540253,
      "semi_major_axis_km": 6853.354452104518,
      "eccentricity": 0.00012981,
      "inclination_deg": 53.1599,
      "raan_deg": 245.8955,
      "arg_perigee_deg": 96.7239,
      "mean_anomaly_deg": 263.3909,
      "mean_motion_rev_day": 15.30199202
    },
    {
      "epoch": "2026-04-23T08:03:57.158208Z",
      "apogee_km": 476.43997971808494,
      "perigee_km": 473.93001906902646,
      "latitude_deg": -3.143484117784434e-05,
      "longitude_deg": -91.02805744273444,
      "height_km": 476.03592560038953,
      "semi_major_axis_km": 6853.321999393555,
      "eccentricity": 0.00018312,
      "inclination_deg": 53.1585,
      "raan_deg": 241.3449,
      "arg_perigee_deg": 87.8899,
      "mean_anomaly_deg": 272.2311,
      "mean_motion_rev_day": 15.30210071
    },
    {
      "epoch": "2026-04-24T16:59:03.926112Z",
      "apogee_km": 476.03026825085544,
      "perigee_km": 474.2826784151557,
      "latitude_deg": -1.107480820415121e-05,
      "longitude_deg": 127.47193963683061,
      "height_km": 476.13870902927914,
      "semi_major_axis_km": 6853.293473333005,
      "eccentricity": 0.0001275,
      "inclination_deg": 53.1574,
      "raan_deg": 234.975,
      "arg_perigee_deg": 95.5449,
      "mean_anomaly_deg": 264.5697,
      "mean_motion_rev_day": 15.30219625
    },
    {
      "epoch": "2026-04-25T18:03:54.664128Z",
      "apogee_km": 475.6654828656219,
      "perigee_km": 474.7073882493323,
      "latitude_deg": 2.2470459196937663e-05,
      "longitude_deg": 105.3780256895339,
      "height_km": 476.1041506755144,
      "semi_major_axis_km": 6853.323435557477,
      "eccentricity": 6.99e-05,
      "inclination_deg": 53.1567,
      "raan_deg": 230.1225,
      "arg_perigee_deg": 92.301,
      "mean_anomaly_deg": 267.8071,
      "mean_motion_rev_day": 15.3020959
    },
    {
      "epoch": "2026-04-26T17:34:42.862656Z",
      "apogee_km": 475.99351497991483,
      "perigee_km": 474.3537918729762,
      "latitude_deg": 4.80499390927326e-05,
      "longitude_deg": 107.15705738905456,
      "height_km": 475.84544834575644,
      "semi_major_axis_km": 6853.310653426445,
      "eccentricity": 0.00011963,
      "inclination_deg": 53.1578,
      "raan_deg": 225.568,
      "arg_perigee_deg": 73.9836,
      "mean_anomaly_deg": 286.1297,
      "mean_motion_rev_day": 15.30213871
    },
    {
      "epoch": "2026-04-27T13:57:24.565248Z",
      "apogee_km": 475.949669114887,
      "perigee_km": 474.52553787227953,
      "latitude_deg": 1.9313366358891133e-05,
      "longitude_deg": 156.70217078496268,
      "height_km": 475.8513808601646,
      "semi_major_axis_km": 6853.374603493583,
      "eccentricity": 0.0001039,
      "inclination_deg": 53.1578,
      "raan_deg": 221.6238,
      "arg_perigee_deg": 66.4514,
      "mean_anomaly_deg": 293.6596,
      "mean_motion_rev_day": 15.30192453
    },
    {
      "epoch": "2026-04-28T13:28:12.671328Z",
      "apogee_km": 475.91210670062446,
      "perigee_km": 474.47701907135524,
      "latitude_deg": -4.510519567574236e-05,
      "longitude_deg": 158.4855220320195,
      "height_km": 475.88653040272726,
      "semi_major_axis_km": 6853.331562885989,
      "eccentricity": 0.0001047,
      "inclination_deg": 53.1584,
      "raan_deg": 217.0733,
      "arg_perigee_deg": 73.2903,
      "mean_anomaly_deg": 286.8212,
      "mean_motion_rev_day": 15.30206868
    },
    {
      "epoch": "2026-04-29T12:59:00.445632Z",
      "apogee_km": 475.97699846120486,
      "perigee_km": 474.4754265813417,
      "latitude_deg": -1.5756777412861902e-05,
      "longitude_deg": 160.2701290357088,
      "height_km": 476.107862727863,
      "semi_major_axis_km": 6853.363212521273,
      "eccentricity": 0.00010955,
      "inclination_deg": 53.1582,
      "raan_deg": 212.5226,
      "arg_perigee_deg": 88.743,
      "mean_anomaly_deg": 271.3696,
      "mean_motion_rev_day": 15.30196268
    },
    {
      "epoch": "2026-04-30T12:29:48.200928Z",
      "apogee_km": 475.76393985325467,
      "perigee_km": 474.6160075851567,
      "latitude_deg": 6.143987122667192e-05,
      "longitude_deg": 162.05425052993797,
      "height_km": 475.81758409738774,
      "semi_major_axis_km": 6853.326973719206,
      "eccentricity": 8.375e-05,
      "inclination_deg": 53.1595,
      "raan_deg": 207.9713,
      "arg_perigee_deg": 61.8122,
      "mean_anomaly_deg": 298.2964,
      "mean_motion_rev_day": 15.30208405
    },
    {
      "epoch": "2026-05-02T11:31:24.510720Z",
      "apogee_km": 476.07704040954013,
      "perigee_km": 474.36781256857466,
      "latitude_deg": -4.795179179390052e-05,
      "longitude_deg": 165.62265548023092,
      "height_km": 476.1087558051251,
      "semi_major_axis_km": 6853.359426489057,
      "eccentricity": 0.0001247,
      "inclination_deg": 53.1598,
      "raan_deg": 198.8724,
      "arg_perigee_deg": 89.2114,
      "mean_anomaly_deg": 270.9029,
      "mean_motion_rev_day": 15.30197536
    }
  ]
}